CCSDS_OMM_VERS = 2.0
CREATION_DATE  = 
ORIGINATOR     = 

OBJECT_NAME    = SL-3 R/B
OBJECT_ID      = 1988-032B
CENTER_NAME    = EARTH
REF_FRAME      = TEME
TIME_SYSTEM    = UTC
MEAN_ELEMENT_THEORY = SGP/SGP4

EPOCH          = 2026-04-05T12:35:56.927616
MEAN_MOTION    = 15.20227144
ECCENTRICITY   = .00271139
INCLINATION    = 97.5226
RA_OF_ASC_NODE = 78.6930
ARG_OF_PERICENTER = 137.4907
MEAN_ANOMALY   = 222.8434

EPHEMERIS_TYPE = 0
CLASSIFICATION_TYPE = U
NORAD_CAT_ID   = 19046
ELEMENT_SET_NO = 999
REV_AT_EPOCH   = 5618
BSTAR          = .28345329E-3
MEAN_MOTION_DOT = .6135E-4
MEAN_MOTION_DDOT = 0

CCSDS_OMM_VERS = 2.0
CREATION_DATE  = 
ORIGINATOR     = 

OBJECT_NAME    = SL-16 R/B
OBJECT_ID      = 1988-039B
CENTER_NAME    = EARTH
REF_FRAME      = TEME
TIME_SYSTEM    = UTC
MEAN_ELEMENT_THEORY = SGP/SGP4

EPOCH          = 2026-04-05T04:37:01.452288
MEAN_MOTION    = 14.19620769
ECCENTRICITY   = .0023872
INCLINATION    = 71.0174
RA_OF_ASC_NODE = 12.5077
ARG_OF_PERICENTER = 296.5078
MEAN_ANOMALY   = 63.3599

EPHEMERIS_TYPE = 0
CLASSIFICATION_TYPE = U
NORAD_CAT_ID   = 19120
ELEMENT_SET_NO = 999
REV_AT_EPOCH   = 96214
BSTAR          = -.7016531E-5
MEAN_MOTION_DOT = -.63E-6
MEAN_MOTION_DDOT = 0

CCSDS_OMM_VERS = 2.0
CREATION_DATE  = 
ORIGINATOR     = 

OBJECT_NAME    = COSMOS 1953
OBJECT_ID      = 1988-050A
CENTER_NAME    = EARTH
REF_FRAME      = TEME
TIME_SYSTEM    = UTC
MEAN_ELEMENT_THEORY = SGP/SGP4

EPOCH          = 2026-04-05T14:14:18.422592
MEAN_MOTION    = 15.28970481
ECCENTRICITY   = .00117671
INCLINATION    = 82.5054
RA_OF_ASC_NODE = 131.1785
ARG_OF_PERICENTER = 38.5154
MEAN_ANOMALY   = 321.6923

EPHEMERIS_TYPE = 0
CLASSIFICATION_TYPE = U
NORAD_CAT_ID   = 19210
ELEMENT_SET_NO = 999
REV_AT_EPOCH   = 4189
BSTAR          = .29747584E-3
MEAN_MOTION_DOT = .8418E-4
MEAN_MOTION_DDOT = 0

CCSDS_OMM_VERS = 2.0
CREATION_DATE  = 
ORIGINATOR     = 

OBJECT_NAME    = SL-8 R/B
OBJECT_ID      = 1988-053B
CENTER_NAME    = EARTH
REF_FRAME      = TEME
TIME_SYSTEM    = UTC
MEAN_ELEMENT_THEORY = SGP/SGP4

EPOCH          = 2026-04-05T08:43:20.505792
MEAN_MOTION    = 14.38934368
ECCENTRICITY   = .00213457
INCLINATION    = 74.0469
RA_OF_ASC_NODE = 63.2939
ARG_OF_PERICENTER = 238.9453
MEAN_ANOMALY   = 231.7294

EPHEMERIS_TYPE = 0
CLASSIFICATION_TYPE = U
NORAD_CAT_ID   = 19257
ELEMENT_SET_NO = 999
REV_AT_EPOCH   = 98043
BSTAR          = .10510633E-3
MEAN_MOTION_DOT = .298E-5
MEAN_MOTION_DDOT = 0

CCSDS_OMM_VERS = 2.0
CREATION_DATE  = 
ORIGINATOR     = 

OBJECT_NAME    = COSMOS 1975
OBJECT_ID      = 1988-093A
CENTER_NAME    = EARTH
REF_FRAME      = TEME
TIME_SYSTEM    = UTC
MEAN_ELEMENT_THEORY = SGP/SGP4

EPOCH          = 2026-04-05T10:32:20.568480
MEAN_MOTION    = 15.28465707
ECCENTRICITY   = .0013315
INCLINATION    = 82.5164
RA_OF_ASC_NODE = 90.8179
ARG_OF_PERICENTER = 79.5828
MEAN_ANOMALY   = 280.6911

EPHEMERIS_TYPE = 0
CLASSIFICATION_TYPE = U
NORAD_CAT_ID   = 19573
ELEMENT_SET_NO = 999
REV_AT_EPOCH   = 2349
BSTAR          = .27465E-3
MEAN_MOTION_DOT = .766E-4
MEAN_MOTION_DDOT = 0

CCSDS_OMM_VERS = 2.0
CREATION_DATE  = 
ORIGINATOR     = 

OBJECT_NAME    = SL-14 R/B
OBJECT_ID      = 1988-093B
CENTER_NAME    = EARTH
REF_FRAME      = TEME
TIME_SYSTEM    = UTC
MEAN_ELEMENT_THEORY = SGP/SGP4

EPOCH          = 2026-04-05T05:13:17.061312
MEAN_MOTION    = 14.85690225
ECCENTRICITY   = .00195254
INCLINATION    = 82.5346
RA_OF_ASC_NODE = 17.1467
ARG_OF_PERICENTER = 313.5979
MEAN_ANOMALY   = 208.6179

EPHEMERIS_TYPE = 0
CLASSIFICATION_TYPE = U
NORAD_CAT_ID   = 19574
ELEMENT_SET_NO = 999
REV_AT_EPOCH   = 495
BSTAR          = .8337933E-4
MEAN_MOTION_DOT = .749E-5
MEAN_MOTION_DDOT = 0

CCSDS_OMM_VERS = 2.0
CREATION_DATE  = 
ORIGINATOR     = 

OBJECT_NAME    = SL-16 R/B
OBJECT_ID      = 1988-102B
CENTER_NAME    = EARTH
REF_FRAME      = TEME
TIME_SYSTEM    = UTC
MEAN_ELEMENT_THEORY = SGP/SGP4

EPOCH          = 2026-04-05T09:25:53.209344
MEAN_MOTION    = 14.16155997
ECCENTRICITY   = .00154424
INCLINATION    = 70.9972
RA_OF_ASC_NODE = 95.3086
ARG_OF_PERICENTER = 322.6944
MEAN_ANOMALY   = 37.3105

EPHEMERIS_TYPE = 0
CLASSIFICATION_TYPE = U
NORAD_CAT_ID   = 19650
ELEMENT_SET_NO = 999
REV_AT_EPOCH   = 93067
BSTAR          = .17438858E-3
MEAN_MOTION_DOT = .298E-5
MEAN_MOTION_DDOT = 0

CCSDS_OMM_VERS = 2.0
CREATION_DATE  = 
ORIGINATOR     = 

OBJECT_NAME    = INTERCOSMOS 24
OBJECT_ID      = 1989-080A
CENTER_NAME    = EARTH
REF_FRAME      = TEME
TIME_SYSTEM    = UTC
MEAN_ELEMENT_THEORY = SGP/SGP4

EPOCH          = 2026-04-05T11:48:34.773696
MEAN_MOTION    = 12.59591595
ECCENTRICITY   = .11870267
INCLINATION    = 82.6016
RA_OF_ASC_NODE = 86.9452
ARG_OF_PERICENTER = 230.5586
MEAN_ANOMALY   = 118.4500

EPHEMERIS_TYPE = 0
CLASSIFICATION_TYPE = U
NORAD_CAT_ID   = 20261
ELEMENT_SET_NO = 999
REV_AT_EPOCH   = 67017
BSTAR          = .14378024E-3
MEAN_MOTION_DOT = .49E-5
MEAN_MOTION_DDOT = 0

CCSDS_OMM_VERS = 2.0
CREATION_DATE  = 
ORIGINATOR     = 

OBJECT_NAME    = SL-14 R/B
OBJECT_ID      = 1989-080C
CENTER_NAME    = EARTH
REF_FRAME      = TEME
TIME_SYSTEM    = UTC
MEAN_ELEMENT_THEORY = SGP/SGP4

EPOCH          = 2026-04-05T14:26:22.435584
MEAN_MOTION    = 12.50519627
ECCENTRICITY   = .12309186
INCLINATION    = 82.5944
RA_OF_ASC_NODE = 155.9175
ARG_OF_PERICENTER = 123.2674
MEAN_ANOMALY   = 249.2508

EPHEMERIS_TYPE = 0
CLASSIFICATION_TYPE = U
NORAD_CAT_ID   = 20262
ELEMENT_SET_NO = 999
REV_AT_EPOCH   = 66351
BSTAR          = .12835722E-3
MEAN_MOTION_DOT = .457E-5
MEAN_MOTION_DDOT = 0

CCSDS_OMM_VERS = 2.0
CREATION_DATE  = 
ORIGINATOR     = 

OBJECT_NAME    = DELTA 1 R/B
OBJECT_ID      = 1989-089B
CENTER_NAME    = EARTH
REF_FRAME      = TEME
TIME_SYSTEM    = UTC
MEAN_ELEMENT_THEORY = SGP/SGP4

EPOCH          = 2026-04-05T14:09:44.970912
MEAN_MOTION    = 14.50687041
ECCENTRICITY   = .00700483
INCLINATION    = 97.0683
RA_OF_ASC_NODE = 298.7456
ARG_OF_PERICENTER = 38.5612
MEAN_ANOMALY   = 322.0560

EPHEMERIS_TYPE = 0
CLASSIFICATION_TYPE = U
NORAD_CAT_ID   = 20323
ELEMENT_SET_NO = 999
REV_AT_EPOCH   = 89963
BSTAR          = .12437352E-3
MEAN_MOTION_DOT = .469E-5
MEAN_MOTION_DDOT = 0

CCSDS_OMM_VERS = 2.0
CREATION_DATE  = 
ORIGINATOR     = 

OBJECT_NAME    = ARIANE 40 R/B
OBJECT_ID      = 1990-005H
CENTER_NAME    = EARTH
REF_FRAME      = TEME
TIME_SYSTEM    = UTC
MEAN_ELEMENT_THEORY = SGP/SGP4

EPOCH          = 2026-04-05T10:16:59.175552
MEAN_MOTION    = 14.39889707
ECCENTRICITY   = .00112899
INCLINATION    = 98.3028
RA_OF_ASC_NODE = 155.2858
ARG_OF_PERICENTER = 121.7349
MEAN_ANOMALY   = 238.4941

EPHEMERIS_TYPE = 0
CLASSIFICATION_TYPE = U
NORAD_CAT_ID   = 20443
ELEMENT_SET_NO = 999
REV_AT_EPOCH   = 89665
BSTAR          = .14120432E-3
MEAN_MOTION_DOT = .402E-5
MEAN_MOTION_DDOT = 0

CCSDS_OMM_VERS = 2.0
CREATION_DATE  = 
ORIGINATOR     = 

OBJECT_NAME    = DELTA 2 R/B(1)
OBJECT_ID      = 1990-008B
CENTER_NAME    = EARTH
REF_FRAME      = TEME
TIME_SYSTEM    = UTC
MEAN_ELEMENT_THEORY = SGP/SGP4

EPOCH          = 2026-04-05T10:05:22.799328
MEAN_MOTION    = 15.59815515
ECCENTRICITY   = .00761519
INCLINATION    = 35.6041
RA_OF_ASC_NODE = 358.9565
ARG_OF_PERICENTER = 150.4404
MEAN_ANOMALY   = 210.0668

EPHEMERIS_TYPE = 0
CLASSIFICATION_TYPE = U
NORAD_CAT_ID   = 20453
ELEMENT_SET_NO = 999
REV_AT_EPOCH   = 93030
BSTAR          = .83578099E-3
MEAN_MOTION_DOT = .80657E-3
MEAN_MOTION_DDOT = 0

