SL-3 R/B                
1 19046U 88032B   26095.52496444  .00006135  00000+0  28345-3 0  9990
2 19046  97.5226  78.6930 0027113 137.4907 222.8434 15.20227144 56184
SL-16 R/B               
1 19120U 88039B   26095.19237792 -.00000063  00000+0 -70165-5 0  9997
2 19120  71.0174  12.5077 0023872 296.5078  63.3599 14.19620769962148
COSMOS 1953             
1 19210U 88050A   26095.59326878  .00008418  00000+0  29748-3 0  9997
2 19210  82.5054 131.1785 0011767  38.5154 321.6923 15.28970481 41896
SL-8 R/B                
1 19257U 88053B   26095.36343178  .00000298  00000+0  10511-3 0  9994
2 19257  74.0469  63.2939 0021345 238.9453 231.7294 14.38934368980438
COSMOS 1975             
1 19573U 88093A   26095.43912695  .00007660  00000+0  27465-3 0  9999
2 19573  82.5164  90.8179 0013315  79.5828 280.6911 15.28465707 23499
SL-14 R/B               
1 19574U 88093B   26095.21755858  .00000749  00000+0  83379-4 0  9990
2 19574  82.5346  17.1467 0019525 313.5979 208.6179 14.85690225  4954
SL-16 R/B               
1 19650U 88102B   26095.39297696  .00000298  00000+0  17439-3 0  9998
2 19650  70.9972  95.3086 0015442 322.6944  37.3105 14.16155997930676
INTERCOSMOS 24          
1 20261U 89080A   26095.49206914  .00000490  00000+0  14378-3 0  9991
2 20261  82.6016  86.9452 1187026 230.5586 118.4500 12.59591595670175
SL-14 R/B               
1 20262U 89080C   26095.60164856  .00000457  00000+0  12836-3 0  9993
2 20262  82.5944 155.9175 1230918 123.2674 249.2508 12.50519627663517
DELTA 1 R/B             
1 20323U 89089B   26095.59010383  .00000469  00000+0  12437-3 0  9993
2 20323  97.0683 298.7456 0070048  38.5612 322.0560 14.50687041899639
ARIANE 40 R/B           
1 20443U 90005H   26095.42846268  .00000402  00000+0  14120-3 0  9995
2 20443  98.3028 155.2858 0011289 121.7349 238.4941 14.39889707896658
DELTA 2 R/B(1)          
1 20453U 90008B   26095.42040277  .00080657  00000+0  83578-3 0  9998
2 20453  35.6041 358.9565 0076151 150.4404 210.0668 15.59815515930307
